[
    {
        "CCSDS_OMM_VERS": "3.0",
        "COMMENT": "GENERATED VIA SPACE-TRACK.ORG API",
        "CREATION_DATE": "2025-04-14T03:05:54",
        "ORIGINATOR": "18 SPCS",
        "OBJECT_NAME": "BD-18",
        "OBJECT_ID": "2015-037A",
        "CENTER_NAME": "EARTH",
        "REF_FRAME": "TEME",
        "TIME_SYSTEM": "UTC",
        "MEAN_ELEMENT_THEORY": "SGP4",
        "EPOCH": "2025-04-13T05:19:51.111840",
        "MEAN_MOTION": "1.86229338",
        "ECCENTRICITY": "0.00080780",
        "INCLINATION": "55.2446",
        "RA_OF_ASC_NODE": "316.8052",
        "ARG_OF_PERICENTER": "266.6915",
        "MEAN_ANOMALY": "93.2495",
        "EPHEMERIS_TYPE": "0",
        "CLASSIFICATION_TYPE": "U",
        "NORAD_CAT_ID": "40748",
        "ELEMENT_SET_NO": "999",
        "REV_AT_EPOCH": "6611",
        "BSTAR": "0.00000000000000",
        "MEAN_MOTION_DOT": "-0.00000067",
        "MEAN_MOTION_DDOT": "0.0000000000000",
        "SEMIMAJOR_AXIS": "27906.355",
        "PERIOD": "773.240",
        "APOAPSIS": "21550.762",
        "PERIAPSIS": "21505.677",
        "OBJECT_TYPE": "PAYLOAD",
        "RCS_SIZE": "LARGE",
        "COUNTRY_CODE": "PRC",
        "LAUNCH_DATE": "2015-07-25",
        "SITE": "XSC",
        "DECAY_DATE": null,
        "FILE": "4701263",
        "GP_ID": "285537589",
        "TLE_LINE0": "0 BD-18",
        "TLE_LINE1": "1 40748U 15037A   25103.22211935 -.00000067  00000-0  00000-0 0  9999",
        "TLE_LINE2": "2 40748  55.2446 316.8052 0008078 266.6915  93.2495  1.86229338 66112"
    }
]